{"type": "FeatureCollection", "features": [ {"type": "Feature", "properties": {"norad_id": 40697, "name": "SENTINEL-2A", "group": "resource", "lat": 59.34535006929801, "lon": -107.99426612720885, "alt_km": 782.5377444731639, "timestamp": "2025-12-10T16:57:11.291908+00:00", "meta": {"OBJECT_NAME": "SENTINEL-2A", "OBJECT_ID": "2015-028A", "EPOCH": "2025-12-10T11:21:42.406272", "MEAN_MOTION": 14.3082665, "ECCENTRICITY": 0.0001071, "INCLINATION": 98.569, "RA_OF_ASC_NODE": 57.0381, "ARG_OF_PERICENTER": 89.2148, "MEAN_ANOMALY": 270.9158, "EPHEMERIS_TYPE": 0, "CLASSIFICATION_TYPE": "U", "NORAD_CAT_ID": 40697, "ELEMENT_SET_NO": 999, "REV_AT_EPOCH": 54674, "BSTAR": 0.000196, "MEAN_MOTION_DOT": 4.7e-06, "MEAN_MOTION_DDOT": 0}, "tle": {"line1": "1 40697U 15028A   25344.47340748  .00000470  00000+0  19600-3 0  9996", "line2": "2 40697  98.5690  57.0381 0001071  89.2148 270.9158 14.30826650546743"}}, "geometry": {"type": "Point", "coordinates": [-107.99426612720885, 59.34535006929801]}}, {"type": "Feature", "properties": {"norad_id": 40701, "name": "GAOFEN-8", "group": "resource", "lat": 78.03000745760774, "lon": 22.35204435279446, "alt_km": 437.8709914765486, "timestamp": "2025-12-10T16:57:11.291918+00:00", "meta": {"OBJECT_NAME": "GAOFEN-8", "OBJECT_ID": "2015-030A", "EPOCH": "2025-12-10T13:24:05.437728", "MEAN_MOTION": 15.38444, "ECCENTRICITY": 0.0011506, "INCLINATION": 97.6916, "RA_OF_ASC_NODE": 162.5927, "ARG_OF_PERICENTER": 145.1805, "MEAN_ANOMALY": 215.0194, "EPHEMERIS_TYPE": 0, "CLASSIFICATION_TYPE": "U", "NORAD_CAT_ID": 40701, "ELEMENT_SET_NO": 999, "REV_AT_EPOCH": 58237, "BSTAR": 0.00098679, "MEAN_MOTION_DOT": 0.00037554, "MEAN_MOTION_DDOT": 0}, "tle": {"line1": "1 40701U 15030A   25344.55839627  .00037554  00000+0  98679-3 0  9999", "line2": "2 40701  97.6916 162.5927 0011506 145.1805 215.0194 15.38444000582377"}}, "geometry": {"type": "Point", "coordinates": [22.35204435279446, 78.03000745760774]}}, {"type": "Feature", "properties": {"norad_id": 40718, "name": "CARBONITE 1 (CBNT-1)", "group": "resource", "lat": 75.84517358674856, "lon": 133.68121154169617, "alt_km": 616.9544674312438, "timestamp": "2025-12-10T16:57:11.291927+00:00", "meta": {"OBJECT_NAME": "CARBONITE 1 (CBNT-1)", "OBJECT_ID": "2015-032D", "EPOCH": "2025-12-10T11:44:33.816192", "MEAN_MOTION": 14.82727721, "ECCENTRICITY": 0.0014246, "INCLINATION": 97.6405, "RA_OF_ASC_NODE": 165.6327, "ARG_OF_PERICENTER": 188.8398, "MEAN_ANOMALY": 171.2568, "EPHEMERIS_TYPE": 0, "CLASSIFICATION_TYPE": "U", "NORAD_CAT_ID": 40718, "ELEMENT_SET_NO": 999, "REV_AT_EPOCH": 56137, "BSTAR": 0.00044792, "MEAN_MOTION_DOT": 3.573e-05, "MEAN_MOTION_DDOT": 0}, "tle": {"line1": "1 40718U 15032D   25344.48928028  .00003573  00000+0  44792-3 0  9996", "line2": "2 40718  97.6405 165.6327 0014246 188.8398 171.2568 14.82727721561378"}}, "geometry": {"type": "Point", "coordinates": [133.68121154169617, 75.84517358674856]}}, {"type": "Feature", "properties": {"norad_id": 40878, "name": "YAOGAN-27", "group": "resource", "lat": -78.91869663603931, "lon": 39.93796914574836, "alt_km": 1201.5534275098908, "timestamp": "2025-12-10T16:57:11.291938+00:00", "meta": {"OBJECT_NAME": "YAOGAN-27", "OBJECT_ID": "2015-040A", "EPOCH": "2025-12-10T11:54:45.172224", "MEAN_MOTION": 13.16060428, "ECCENTRICITY": 0.0007644, "INCLINATION": 100.101, "RA_OF_ASC_NODE": 334.2172, "ARG_OF_PERICENTER": 292.5363, "MEAN_ANOMALY": 67.4941, "EPHEMERIS_TYPE": 0, "CLASSIFICATION_TYPE": "U", "NORAD_CAT_ID": 40878, "ELEMENT_SET_NO": 999, "REV_AT_EPOCH": 49284, "BSTAR": 0.00082714, "MEAN_MOTION_DOT": 2.72e-06, "MEAN_MOTION_DDOT": 0}, "tle": {"line1": "1 40878U 15040A   25344.49635616  .00000272  00000+0  82714-3 0  9990", "line2": "2 40878 100.1010 334.2172 0007644 292.5363  67.4941 13.16060428492844"}}, "geometry": {"type": "Point", "coordinates": [39.93796914574836, -78.91869663603931]}}, {"type": "Feature", "properties": {"norad_id": 40894, "name": "GAOFEN-9 01", "group": "resource", "lat": 1.0230674365311272, "lon": 23.612041558114132, "alt_km": 609.1718414932457, "timestamp": "2025-12-10T16:57:11.291948+00:00", "meta": {"OBJECT_NAME": "GAOFEN-9 01", "OBJECT_ID": "2015-047A", "EPOCH": "2025-12-10T12:05:18.949920", "MEAN_MOTION": 14.82413361, "ECCENTRICITY": 0.0028557, "INCLINATION": 97.6545, "RA_OF_ASC_NODE": 23.5557, "ARG_OF_PERICENTER": 41.3664, "MEAN_ANOMALY": 318.9705, "EPHEMERIS_TYPE": 0, "CLASSIFICATION_TYPE": "U", "NORAD_CAT_ID": 40894, "ELEMENT_SET_NO": 999, "REV_AT_EPOCH": 55223, "BSTAR": 0.00023576, "MEAN_MOTION_DOT": 1.851e-05, "MEAN_MOTION_DDOT": 0}, "tle": {"line1": "1 40894U 15047A   25344.50369155  .00001851  00000+0  23576-3 0  9994", "line2": "2 40894  97.6545  23.5557 0028557  41.3664 318.9705 14.82413361552234"}}, "geometry": {"type": "Point", "coordinates": [23.612041558114132, 1.0230674365311272]}}, {"type": "Feature", "properties": {"norad_id": 41026, "name": "YAOGAN-28", "group": "resource", "lat": -26.49277541336681, "lon": -61.09743531478295, "alt_km": 496.35582754479856, "timestamp": "2025-12-10T16:57:11.291958+00:00", "meta": {"OBJECT_NAME": "YAOGAN-28", "OBJECT_ID": "2015-064A", "EPOCH": "2025-12-10T12:53:58.149312", "MEAN_MOTION": 15.24292486, "ECCENTRICITY": 0.0012292, "INCLINATION": 97.2806, "RA_OF_ASC_NODE": 122.392, "ARG_OF_PERICENTER": 133.2301, "MEAN_ANOMALY": 226.9965, "EPHEMERIS_TYPE": 0, "CLASSIFICATION_TYPE": "U", "NORAD_CAT_ID": 41026, "ELEMENT_SET_NO": 999, "REV_AT_EPOCH": 56191, "BSTAR": 0.00056284, "MEAN_MOTION_DOT": 0.00013724, "MEAN_MOTION_DDOT": 0}, "tle": {"line1": "1 41026U 15064A   25344.53747858  .00013724  00000+0  56284-3 0  9998", "line2": "2 41026  97.2806 122.3920 0012292 133.2301 226.9965 15.24292486561919"}}, "geometry": {"type": "Point", "coordinates": [-61.09743531478295, -26.49277541336681]}}, {"type": "Feature", "properties": {"norad_id": 41038, "name": "YAOGAN-29", "group": "resource", "lat": -64.58311543988913, "lon": 170.6072463575493, "alt_km": 627.5287402364374, "timestamp": "2025-12-10T16:57:11.291967+00:00", "meta": {"OBJECT_NAME": "YAOGAN-29", "OBJECT_ID": "2015-069A", "EPOCH": "2025-12-10T12:36:33.259680", "MEAN_MOTION": 14.82878709, "ECCENTRICITY": 3.87e-05, "INCLINATION": 98.0219, "RA_OF_ASC_NODE": 7.6896, "ARG_OF_PERICENTER": 348.7181, "MEAN_ANOMALY": 11.4023, "EPHEMERIS_TYPE": 0, "CLASSIFICATION_TYPE": "U", "NORAD_CAT_ID": 41038, "ELEMENT_SET_NO": 999, "REV_AT_EPOCH": 54266, "BSTAR": 7.9496e-05, "MEAN_MOTION_DOT": 5.9e-06, "MEAN_MOTION_DDOT": 0}, "tle": {"line1": "1 41038U 15069A   25344.52538495  .00000590  00000+0  79496-4 0  9998", "line2": "2 41038  98.0219   7.6896 0000387 348.7181  11.4023 14.82878709542661"}}, "geometry": {"type": "Point", "coordinates": [170.6072463575493, -64.58311543988913]}}, {"type": "Feature", "properties": {"norad_id": 41167, "name": "KENT RIDGE 1", "group": "resource", "lat": 2.6505618920564693, "lon": 36.26174295515398, "alt_km": 495.63826266254364, "timestamp": "2025-12-10T16:57:11.291977+00:00", "meta": {"OBJECT_NAME": "KENT RIDGE 1", "OBJECT_ID": "2015-077B", "EPOCH": "2025-12-10T08:20:47.378112", "MEAN_MOTION": 15.21606581, "ECCENTRICITY": 0.0008539, "INCLINATION": 14.9787, "RA_OF_ASC_NODE": 228.8902, "ARG_OF_PERICENTER": 96.8813, "MEAN_ANOMALY": 263.248, "EPHEMERIS_TYPE": 0, "CLASSIFICATION_TYPE": "U", "NORAD_CAT_ID": 41167, "ELEMENT_SET_NO": 999, "REV_AT_EPOCH": 55227, "BSTAR": 0.00026181, "MEAN_MOTION_DOT": 6.854e-05, "MEAN_MOTION_DDOT": 0}, "tle": {"line1": "1 41167U 15077B   25344.34777058  .00006854  00000+0  26181-3 0  9991", "line2": "2 41167  14.9787 228.8902 0008539  96.8813 263.2480 15.21606581552279"}}, "geometry": {"type": "Point", "coordinates": [36.26174295515398, 2.6505618920564693]}}, {"type": "Feature", "properties": {"norad_id": 41194, "name": "GAOFEN-4", "group": "resource", "lat": 0.01592072228587176, "lon": 79.63492433936932, "alt_km": 35791.15936063243, "timestamp": "2025-12-10T16:57:11.291990+00:00", "meta": {"OBJECT_NAME": "GAOFEN-4", "OBJECT_ID": "2015-083A", "EPOCH": "2025-12-10T12:30:49.584672", "MEAN_MOTION": 1.00270326, "ECCENTRICITY": 0.0003573, "INCLINATION": 0.1651, "RA_OF_ASC_NODE": 80.7667, "ARG_OF_PERICENTER": 106.7467, "MEAN_ANOMALY": 185.3918, "EPHEMERIS_TYPE": 0, "CLASSIFICATION_TYPE": "U", "NORAD_CAT_ID": 41194, "ELEMENT_SET_NO": 999, "REV_AT_EPOCH": 3663, "BSTAR": 0, "MEAN_MOTION_DOT": -3.31e-06, "MEAN_MOTION_DDOT": 0}, "tle": {"line1": "1 41194U 15083A   25344.52140723 -.00000331  00000+0  00000+0 0  9994", "line2": "2 41194   0.1651  80.7667 0003573 106.7467 185.3918  1.00270326 36631"}}, "geometry": {"type": "Point", "coordinates": [79.63492433936932, 0.01592072228587176]}}, {"type": "Feature", "properties": {"norad_id": 41240, "name": "JASON-3", "group": "resource", "lat": -57.17012346496614, "lon": 25.665545535715793, "alt_km": 1312.1067670576895, "timestamp": "2025-12-10T16:57:11.292000+00:00", "meta": {"OBJECT_NAME": "JASON-3", "OBJECT_ID": "2016-002A", "EPOCH": "2025-12-10T11:56:48.647328", "MEAN_MOTION": 12.87626413, "ECCENTRICITY": 0.0007154, "INCLINATION": 66.0389, "RA_OF_ASC_NODE": 162.5377, "ARG_OF_PERICENTER": 270.6547, "MEAN_ANOMALY": 89.3652, "EPHEMERIS_TYPE": 0, "CLASSIFICATION_TYPE": "U", "NORAD_CAT_ID": 41240, "ELEMENT_SET_NO": 999, "REV_AT_EPOCH": 46295, "BSTAR": 8.4615e-05, "MEAN_MOTION_DOT": -4.1e-07, "MEAN_MOTION_DDOT": 0}, "tle": {"line1": "1 41240U 16002A   25344.49778527 -.00000041  00000+0  84615-4 0  9990", "line2": "2 41240  66.0389 162.5377 0007154 270.6547  89.3652 12.87626413462953"}}, "geometry": {"type": "Point", "coordinates": [25.665545535715793, -57.17012346496614]}}]}